[{"OBJECT_NAME":"INTELSAT 40E (IS-40E)","OBJECT_ID":"2023-052A","EPOCH":"2026-04-27T04:37:14.058048","MEAN_MOTION":1.00272133,"ECCENTRICITY":0.0001099,"INCLINATION":0.0139,"RA_OF_ASC_NODE":238.6065,"ARG_OF_PERICENTER":198.9307,"MEAN_ANOMALY":115.954,"EPHEMERIS_TYPE":0,"CLASSIFICATION_TYPE":"U","NORAD_CAT_ID":56174,"ELEMENT_SET_NO":999,"REV_AT_EPOCH":1131,"BSTAR":0,"MEAN_MOTION_DOT":-1.84e-6,"MEAN_MOTION_DDOT":0},{"OBJECT_NAME":"VIASAT-3 F1","OBJECT_ID":"2023-060A","EPOCH":"2026-04-27T01:07:28.247808","MEAN_MOTION":1.00271212,"ECCENTRICITY":0.0001104,"INCLINATION":0.0169,"RA_OF_ASC_NODE":278.7228,"ARG_OF_PERICENTER":166.2945,"MEAN_ANOMALY":57.9937,"EPHEMERIS_TYPE":0,"CLASSIFICATION_TYPE":"U","NORAD_CAT_ID":56370,"ELEMENT_SET_NO":999,"REV_AT_EPOCH":1092,"BSTAR":0,"MEAN_MOTION_DOT":-1.96e-6,"MEAN_MOTION_DDOT":0},{"OBJECT_NAME":"ARCTURUS","OBJECT_ID":"2023-060B","EPOCH":"2026-04-26T23:16:45.560064","MEAN_MOTION":1.00269907,"ECCENTRICITY":0.0001623,"INCLINATION":2.6442,"RA_OF_ASC_NODE":80.5687,"ARG_OF_PERICENTER":358.0152,"MEAN_ANOMALY":198.0876,"EPHEMERIS_TYPE":0,"CLASSIFICATION_TYPE":"U","NORAD_CAT_ID":56371,"ELEMENT_SET_NO":999,"REV_AT_EPOCH":1094,"BSTAR":0,"MEAN_MOTION_DOT":-7.1e-7,"MEAN_MOTION_DDOT":0},{"OBJECT_NAME":"GS-1","OBJECT_ID":"2023-060C","EPOCH":"2026-04-26T21:03:38.545344","MEAN_MOTION":1.00288335,"ECCENTRICITY":0.0004451,"INCLINATION":2.5944,"RA_OF_ASC_NODE":80.4043,"ARG_OF_PERICENTER":274.4448,"MEAN_ANOMALY":263.5069,"EPHEMERIS_TYPE":0,"CLASSIFICATION_TYPE":"U","NORAD_CAT_ID":56372,"ELEMENT_SET_NO":999,"REV_AT_EPOCH":702,"BSTAR":0,"MEAN_MOTION_DOT":-2.2e-6,"MEAN_MOTION_DDOT":0},{"OBJECT_NAME":"BEIDOU-3 G4","OBJECT_ID":"2023-066A","EPOCH":"2026-04-26T22:47:19.192416","MEAN_MOTION":1.00272365,"ECCENTRICITY":0.0002817,"INCLINATION":0.557,"RA_OF_ASC_NODE":320.0463,"ARG_OF_PERICENTER":160.5187,"MEAN_ANOMALY":216.2962,"EPHEMERIS_TYPE":0,"CLASSIFICATION_TYPE":"U","NORAD_CAT_ID":56564,"ELEMENT_SET_NO":999,"REV_AT_EPOCH":1088,"BSTAR":0,"MEAN_MOTION_DOT":-2.93e-6,"MEAN_MOTION_DDOT":0},{"OBJECT_NAME":"ARABSAT-7B (BADR-8)","OBJECT_ID":"2023-075A","EPOCH":"2026-04-27T05:04:38.648352","MEAN_MOTION":1.00272771,"ECCENTRICITY":0.0005083,"INCLINATION":0.0802,"RA_OF_ASC_NODE":34.6021,"ARG_OF_PERICENTER":336.4566,"MEAN_ANOMALY":306.3074,"EPHEMERIS_TYPE":0,"CLASSIFICATION_TYPE":"U","NORAD_CAT_ID":56757,"ELEMENT_SET_NO":999,"REV_AT_EPOCH":1060,"BSTAR":0,"MEAN_MOTION_DOT":1.35e-6,"MEAN_MOTION_DDOT":0},{"OBJECT_NAME":"NVS-01 (IRNSS-1J)","OBJECT_ID":"2023-076A","EPOCH":"2026-04-27T00:27:02.128032","MEAN_MOTION":1.00268329,"ECCENTRICITY":0.000541,"INCLINATION":2.2864,"RA_OF_ASC_NODE":246.5551,"ARG_OF_PERICENTER":50.099,"MEAN_ANOMALY":54.6352,"EPHEMERIS_TYPE":0,"CLASSIFICATION_TYPE":"U","NORAD_CAT_ID":56759,"ELEMENT_SET_NO":999,"REV_AT_EPOCH":1060,"BSTAR":0,"MEAN_MOTION_DOT":-3.49e-6,"MEAN_MOTION_DDOT":0},{"OBJECT_NAME":"NUSANTARA TIGA (SATRIA)","OBJECT_ID":"2023-086A","EPOCH":"2026-04-26T22:49:04.024128","MEAN_MOTION":1.00271423,"ECCENTRICITY":0.0004942,"INCLINATION":0.0482,"RA_OF_ASC_NODE":313.2028,"ARG_OF_PERICENTER":24.234,"MEAN_ANOMALY":5.7802,"EPHEMERIS_TYPE":0,"CLASSIFICATION_TYPE":"U","NORAD_CAT_ID":57045,"ELEMENT_SET_NO":999,"REV_AT_EPOCH":924,"BSTAR":0,"MEAN_MOTION_DOT":-2.46e-6,"MEAN_MOTION_DDOT":0},{"OBJECT_NAME":"H2SAT (HEINRICH HERTZ)","OBJECT_ID":"2023-093A","EPOCH":"2026-04-27T05:20:38.796000","MEAN_MOTION":1.00270609,"ECCENTRICITY":0.0001001,"INCLINATION":0.0173,"RA_OF_ASC_NODE":229.481,"ARG_OF_PERICENTER":262.3438,"MEAN_ANOMALY":164.2527,"EPHEMERIS_TYPE":0,"CLASSIFICATION_TYPE":"U","NORAD_CAT_ID":57213,"ELEMENT_SET_NO":999,"REV_AT_EPOCH":1040,"BSTAR":0,"MEAN_MOTION_DOT":0,"MEAN_MOTION_DDOT":0},{"OBJECT_NAME":"SYRACUSE 4B","OBJECT_ID":"2023-093B","EPOCH":"2026-04-27T05:28:38.742816","MEAN_MOTION":1.0026953,"ECCENTRICITY":2.55e-5,"INCLINATION":0.0141,"RA_OF_ASC_NODE":232.8214,"ARG_OF_PERICENTER":206.7453,"MEAN_ANOMALY":211.3567,"EPHEMERIS_TYPE":0,"CLASSIFICATION_TYPE":"U","NORAD_CAT_ID":57214,"ELEMENT_SET_NO":999,"REV_AT_EPOCH":645,"BSTAR":0,"MEAN_MOTION_DOT":0,"MEAN_MOTION_DDOT":0},{"OBJECT_NAME":"JUPITER 3 (ECHOSTAR 24)","OBJECT_ID":"2023-108A","EPOCH":"2026-04-26T16:02:14.591616","MEAN_MOTION":1.00269999,"ECCENTRICITY":0.00010548,"INCLINATION":0.0177,"RA_OF_ASC_NODE":241.9086,"ARG_OF_PERICENTER":161.8593,"MEAN_ANOMALY":316.2405,"EPHEMERIS_TYPE":0,"CLASSIFICATION_TYPE":"U","NORAD_CAT_ID":57479,"ELEMENT_SET_NO":999,"REV_AT_EPOCH":1012,"BSTAR":0,"MEAN_MOTION_DOT":0,"MEAN_MOTION_DDOT":0},{"OBJECT_NAME":"GALAXY 37 (G-37)","OBJECT_ID":"2023-112A","EPOCH":"2026-04-27T03:54:38.810016","MEAN_MOTION":1.00270413,"ECCENTRICITY":0.0002224,"INCLINATION":0.0126,"RA_OF_ASC_NODE":245.2489,"ARG_OF_PERICENTER":150.0018,"MEAN_ANOMALY":111.5676,"EPHEMERIS_TYPE":0,"CLASSIFICATION_TYPE":"U","NORAD_CAT_ID":57493,"ELEMENT_SET_NO":999,"REV_AT_EPOCH":1003,"BSTAR":0,"MEAN_MOTION_DOT":0,"MEAN_MOTION_DDOT":0},{"OBJECT_NAME":"LUDI TANCE-4 01A","OBJECT_ID":"2023-120A","EPOCH":"2026-04-27T04:36:21.692736","MEAN_MOTION":1.00267919,"ECCENTRICITY":0.0002865,"INCLINATION":15.1333,"RA_OF_ASC_NODE":195.2287,"ARG_OF_PERICENTER":114.8387,"MEAN_ANOMALY":63.6781,"EPHEMERIS_TYPE":0,"CLASSIFICATION_TYPE":"U","NORAD_CAT_ID":57624,"ELEMENT_SET_NO":999,"REV_AT_EPOCH":1003,"BSTAR":0,"MEAN_MOTION_DOT":-1.98e-6,"MEAN_MOTION_DDOT":0},{"OBJECT_NAME":"TJS-10","OBJECT_ID":"2023-169A","EPOCH":"2026-04-26T17:25:12.302112","MEAN_MOTION":1.00459017,"ECCENTRICITY":0.0001551,"INCLINATION":2.4137,"RA_OF_ASC_NODE":81.0758,"ARG_OF_PERICENTER":49.7885,"MEAN_ANOMALY":75.7719,"EPHEMERIS_TYPE":0,"CLASSIFICATION_TYPE":"U","NORAD_CAT_ID":58204,"ELEMENT_SET_NO":999,"REV_AT_EPOCH":902,"BSTAR":0,"MEAN_MOTION_DOT":-2.79e-6,"MEAN_MOTION_DDOT":0},{"OBJECT_NAME":"ZHONGXING-6E","OBJECT_ID":"2023-172A","EPOCH":"2026-04-27T00:23:02.510592","MEAN_MOTION":1.00270582,"ECCENTRICITY":0.0003124,"INCLINATION":0.0451,"RA_OF_ASC_NODE":81.0345,"ARG_OF_PERICENTER":316.9726,"MEAN_ANOMALY":298.2811,"EPHEMERIS_TYPE":0,"CLASSIFICATION_TYPE":"U","NORAD_CAT_ID":58253,"ELEMENT_SET_NO":999,"REV_AT_EPOCH":914,"BSTAR":0,"MEAN_MOTION_DOT":-3.72e-6,"MEAN_MOTION_DDOT":0},{"OBJECT_NAME":"YAOGAN-41","OBJECT_ID":"2023-197A","EPOCH":"2026-04-27T00:25:09.807168","MEAN_MOTION":1.00272508,"ECCENTRICITY":0.0012626,"INCLINATION":3.2228,"RA_OF_ASC_NODE":312.3807,"ARG_OF_PERICENTER":184.8743,"MEAN_ANOMALY":207.294,"EPHEMERIS_TYPE":0,"CLASSIFICATION_TYPE":"U","NORAD_CAT_ID":58582,"ELEMENT_SET_NO":999,"REV_AT_EPOCH":881,"BSTAR":0,"MEAN_MOTION_DOT":-3.78e-6,"MEAN_MOTION_DDOT":0},{"OBJECT_NAME":"OVZON-3","OBJECT_ID":"2024-003A","EPOCH":"2026-04-27T01:49:46.691040","MEAN_MOTION":1.00273899,"ECCENTRICITY":1.59e-5,"INCLINATION":0.0129,"RA_OF_ASC_NODE":191.8541,"ARG_OF_PERICENTER":99.7169,"MEAN_ANOMALY":10.6347,"EPHEMERIS_TYPE":0,"CLASSIFICATION_TYPE":"U","NORAD_CAT_ID":58698,"ELEMENT_SET_NO":999,"REV_AT_EPOCH":693,"BSTAR":0,"MEAN_MOTION_DOT":4.1e-7,"MEAN_MOTION_DDOT":0}]
